[
{"CCSDS_OMM_VERS":"2.0",
"COMMENT":"GENERATED VIA SPACE-TRACK.ORG API",
"CREATION_DATE":"2022-06-04T18:35:37",
"ORIGINATOR":"18 SPCS",
"OBJECT_NAME":"VANGUARD 1",
"OBJECT_ID":"1958-002B",
"CENTER_NAME":"EARTH",
"REF_FRAME":"TEME",
"TIME_SYSTEM":"UTC",
"MEAN_ELEMENT_THEORY":"SGP4",
"EPOCH":"2022-06-04T07:31:11.797536",
"MEAN_MOTION":"10.84954823",
"ECCENTRICITY":"0.18468310",
"INCLINATION":"34.2471",
"RA_OF_ASC_NODE":"179.9212",
"ARG_OF_PERICENTER":"338.3468",
"MEAN_ANOMALY":"14.7961",
"EPHEMERIS_TYPE":"0",
"CLASSIFICATION_TYPE":"U",
"NORAD_CAT_ID":"5",
"ELEMENT_SET_NO":"999",
"REV_AT_EPOCH":"28311",
"BSTAR":"0.00016655000000",
"MEAN_MOTION_DOT":"0.00000131",
"MEAN_MOTION_DDOT":"0.0000000000000",
"SEMIMAJOR_AXIS":"8619.077",
"PERIOD":"132.724",
"APOAPSIS":"3832.739",
"PERIAPSIS":"649.144",
"OBJECT_TYPE":"PAYLOAD",
"RCS_SIZE":"MEDIUM",
"COUNTRY_CODE":"US",
"LAUNCH_DATE":"1958-03-17",
"SITE":"AFETR",
"DECAY_DATE":null,
"FILE":"3480894",
"GP_ID":"205330017",
"TLE_LINE0":"0 VANGUARD 1",
"TLE_LINE1":"1 00005U 58002B   22155.31333099  .00000131  00000-0  16655-3 0  9997",
"TLE_LINE2":"2 00005  34.2471 179.9212 1846831 338.3468  14.7961 10.84954823283112"},
{"CCSDS_OMM_VERS":"2.0",
"COMMENT":"GENERATED VIA SPACE-TRACK.ORG API",
"CREATION_DATE":"2022-06-06T02:39:45",
"ORIGINATOR":"18 SPCS",
"OBJECT_NAME":"VANGUARD 1",
"OBJECT_ID":"1958-002B",
"CENTER_NAME":"EARTH",
"REF_FRAME":"TEME",
"TIME_SYSTEM":"UTC",
"MEAN_ELEMENT_THEORY":"SGP4",
"EPOCH":"2022-06-05T10:02:37.588704",
"MEAN_MOTION":"10.84954968",
"ECCENTRICITY":"0.18467830",
"INCLINATION":"34.2461",
"RA_OF_ASC_NODE":"176.5148",
"ARG_OF_PERICENTER":"343.3231",
"MEAN_ANOMALY":"11.3707",
"EPHEMERIS_TYPE":"0",
"CLASSIFICATION_TYPE":"U",
"NORAD_CAT_ID":"5",
"ELEMENT_SET_NO":"999",
"REV_AT_EPOCH":"28323",
"BSTAR":"0.00013117000000",
"MEAN_MOTION_DOT":"0.00000101",
"MEAN_MOTION_DDOT":"0.0000000000000",
"SEMIMAJOR_AXIS":"8619.076",
"PERIOD":"132.724",
"APOAPSIS":"3832.697",
"PERIAPSIS":"649.185",
"OBJECT_TYPE":"PAYLOAD",
"RCS_SIZE":"MEDIUM",
"COUNTRY_CODE":"US",
"LAUNCH_DATE":"1958-03-17",
"SITE":"AFETR",
"DECAY_DATE":null,
"FILE":"3482995",
"GP_ID":"205425810",
"TLE_LINE0":"0 VANGUARD 1",
"TLE_LINE1":"1 00005U 58002B   22156.41849061  .00000101  00000-0  13117-3 0  9997",
"TLE_LINE2":"2 00005  34.2461 176.5148 1846783 343.3231  11.3707 10.84954968283236"},
{"CCSDS_OMM_VERS":"2.0",
"COMMENT":"GENERATED VIA SPACE-TRACK.ORG API",
"CREATION_DATE":"2022-06-05T14:56:12",
"ORIGINATOR":"18 SPCS",
"OBJECT_NAME":"VANGUARD 1",
"OBJECT_ID":"1958-002B",
"CENTER_NAME":"EARTH",
"REF_FRAME":"TEME",
"TIME_SYSTEM":"UTC",
"MEAN_ELEMENT_THEORY":"SGP4",
"EPOCH":"2022-06-05T10:02:37.588704",
"MEAN_MOTION":"10.84954968",
"ECCENTRICITY":"0.18467830",
"INCLINATION":"34.2461",
"RA_OF_ASC_NODE":"176.5148",
"ARG_OF_PERICENTER":"343.3231",
"MEAN_ANOMALY":"11.3707",
"EPHEMERIS_TYPE":"0",
"CLASSIFICATION_TYPE":"U",
"NORAD_CAT_ID":"5",
"ELEMENT_SET_NO":"999",
"REV_AT_EPOCH":"28333",
"BSTAR":"0.00013117000000",
"MEAN_MOTION_DOT":"0.00000101",
"MEAN_MOTION_DDOT":"0.0000000000000",
"SEMIMAJOR_AXIS":"8619.076",
"PERIOD":"132.724",
"APOAPSIS":"3832.697",
"PERIAPSIS":"649.185",
"OBJECT_TYPE":"PAYLOAD",
"RCS_SIZE":"MEDIUM",
"COUNTRY_CODE":"US",
"LAUNCH_DATE":"1958-03-17",
"SITE":"AFETR",
"DECAY_DATE":null,
"FILE":"3482055",
"GP_ID":"205403053",
"TLE_LINE0":"0 VANGUARD 1",
"TLE_LINE1":"1     5U 58002B   22156.41849061  .00000101  00000-0  13117-3 0  9997",
"TLE_LINE2":"2     5  34.2461 176.5148 1846783 343.3231  11.3707 10.84954968283337"},
{"CCSDS_OMM_VERS":"2.0",
"COMMENT":"GENERATED VIA SPACE-TRACK.ORG API",
"CREATION_DATE":"2022-06-06T18:41:15",
"ORIGINATOR":"18 SPCS",
"OBJECT_NAME":"VANGUARD 1",
"OBJECT_ID":"1958-002B",
"CENTER_NAME":"EARTH",
"REF_FRAME":"TEME",
"TIME_SYSTEM":"UTC",
"MEAN_ELEMENT_THEORY":"SGP4",
"EPOCH":"2022-06-06T08:08:49.516800",
"MEAN_MOTION":"10.84955198",
"ECCENTRICITY":"0.18467280",
"INCLINATION":"34.2454",
"RA_OF_ASC_NODE":"173.6760",
"ARG_OF_PERICENTER":"347.4703",
"MEAN_ANOMALY":"8.5367",
"EPHEMERIS_TYPE":"0",
"CLASSIFICATION_TYPE":"U",
"NORAD_CAT_ID":"5",
"ELEMENT_SET_NO":"999",
"REV_AT_EPOCH":"28333",
"BSTAR":"0.00013382000000",
"MEAN_MOTION_DOT":"0.00000102",
"MEAN_MOTION_DDOT":"0.0000000000000",
"SEMIMAJOR_AXIS":"8619.075",
"PERIOD":"132.724",
"APOAPSIS":"3832.648",
"PERIAPSIS":"649.231",
"OBJECT_TYPE":"PAYLOAD",
"RCS_SIZE":"MEDIUM",
"COUNTRY_CODE":"US",
"LAUNCH_DATE":"1958-03-17",
"SITE":"AFETR",
"DECAY_DATE":null,
"FILE":"3484104",
"GP_ID":"205473331",
"TLE_LINE0":"0 VANGUARD 1",
"TLE_LINE1":"1 00005U 58002B   22157.33946200  .00000102  00000-0  13382-3 0  9997",
"TLE_LINE2":"2 00005  34.2454 173.6760 1846728 347.4703   8.5367 10.84955198283331"},
{"CCSDS_OMM_VERS":"2.0",
"COMMENT":"GENERATED VIA SPACE-TRACK.ORG API",
"CREATION_DATE":"2022-06-07T17:17:06",
"ORIGINATOR":"18 SPCS",
"OBJECT_NAME":"VANGUARD 1",
"OBJECT_ID":"1958-002B",
"CENTER_NAME":"EARTH",
"REF_FRAME":"TEME",
"TIME_SYSTEM":"UTC",
"MEAN_ELEMENT_THEORY":"SGP4",
"EPOCH":"2022-06-07T08:27:38.971296",
"MEAN_MOTION":"10.84955438",
"ECCENTRICITY":"0.18466810",
"INCLINATION":"34.2447",
"RA_OF_ASC_NODE":"170.5532",
"ARG_OF_PERICENTER":"352.0325",
"MEAN_ANOMALY":"5.4351",
"EPHEMERIS_TYPE":"0",
"CLASSIFICATION_TYPE":"U",
"NORAD_CAT_ID":"5",
"ELEMENT_SET_NO":"999",
"REV_AT_EPOCH":"28344",
"BSTAR":"0.00014026000000",
"MEAN_MOTION_DOT":"0.00000105",
"MEAN_MOTION_DDOT":"0.0000000000000",
"SEMIMAJOR_AXIS":"8619.073",
"PERIOD":"132.724",
"APOAPSIS":"3832.606",
"PERIAPSIS":"649.270",
"OBJECT_TYPE":"PAYLOAD",
"RCS_SIZE":"MEDIUM",
"COUNTRY_CODE":"US",
"LAUNCH_DATE":"1958-03-17",
"SITE":"AFETR",
"DECAY_DATE":null,
"FILE":"3484919",
"GP_ID":"205543041",
"TLE_LINE0":"0 VANGUARD 1",
"TLE_LINE1":"1 00005U 58002B   22158.35253439  .00000105  00000-0  14026-3 0  9994",
"TLE_LINE2":"2 00005  34.2447 170.5532 1846681 352.0325   5.4351 10.84955438283444"},
{"CCSDS_OMM_VERS":"2.0",
"COMMENT":"GENERATED VIA SPACE-TRACK.ORG API",
"CREATION_DATE":"2022-06-08T06:56:12",
"ORIGINATOR":"18 SPCS",
"OBJECT_NAME":"VANGUARD 1",
"OBJECT_ID":"1958-002B",
"CENTER_NAME":"EARTH",
"REF_FRAME":"TEME",
"TIME_SYSTEM":"UTC",
"MEAN_ELEMENT_THEORY":"SGP4",
"EPOCH":"2022-06-08T02:08:36.902400",
"MEAN_MOTION":"10.84955634",
"ECCENTRICITY":"0.18466490",
"INCLINATION":"34.2441",
"RA_OF_ASC_NODE":"168.2819",
"ARG_OF_PERICENTER":"355.3507",
"MEAN_ANOMALY":"3.1863",
"EPHEMERIS_TYPE":"0",
"CLASSIFICATION_TYPE":"U",
"NORAD_CAT_ID":"5",
"ELEMENT_SET_NO":"999",
"REV_AT_EPOCH":"28362",
"BSTAR":"0.00015521000000",
"MEAN_MOTION_DOT":"0.00000116",
"MEAN_MOTION_DDOT":"0.0000000000000",
"SEMIMAJOR_AXIS":"8619.072",
"PERIOD":"132.724",
"APOAPSIS":"3832.577",
"PERIAPSIS":"649.297",
"OBJECT_TYPE":"PAYLOAD",
"RCS_SIZE":"MEDIUM",
"COUNTRY_CODE":"US",
"LAUNCH_DATE":"1958-03-17",
"SITE":"AFETR",
"DECAY_DATE":null,
"FILE":"3485268",
"GP_ID":"205601896",
"TLE_LINE0":"0 VANGUARD 1",
"TLE_LINE1":"1     5U 58002B   22159.08931600  .00000116  00000-0  15521-3 0  9991",
"TLE_LINE2":"2     5  34.2441 168.2819 1846649 355.3507   3.1863 10.84955634283623"},
{"CCSDS_OMM_VERS":"2.0",
"COMMENT":"GENERATED VIA SPACE-TRACK.ORG API",
"CREATION_DATE":"2022-06-08T16:57:44",
"ORIGINATOR":"18 SPCS",
"OBJECT_NAME":"VANGUARD 1",
"OBJECT_ID":"1958-002B",
"CENTER_NAME":"EARTH",
"REF_FRAME":"TEME",
"TIME_SYSTEM":"UTC",
"MEAN_ELEMENT_THEORY":"SGP4",
"EPOCH":"2022-06-08T04:21:14.150592",
"MEAN_MOTION":"10.84955669",
"ECCENTRICITY":"0.18466440",
"INCLINATION":"34.2441",
"RA_OF_ASC_NODE":"167.9981",
"ARG_OF_PERICENTER":"355.7654",
"MEAN_ANOMALY":"2.9055",
"EPHEMERIS_TYPE":"0",
"CLASSIFICATION_TYPE":"U",
"NORAD_CAT_ID":"5",
"ELEMENT_SET_NO":"999",
"REV_AT_EPOCH":"28353",
"BSTAR":"0.00015950000000",
"MEAN_MOTION_DOT":"0.00000119",
"MEAN_MOTION_DDOT":"0.0000000000000",
"SEMIMAJOR_AXIS":"8619.072",
"PERIOD":"132.724",
"APOAPSIS":"3832.573",
"PERIAPSIS":"649.301",
"OBJECT_TYPE":"PAYLOAD",
"RCS_SIZE":"MEDIUM",
"COUNTRY_CODE":"US",
"LAUNCH_DATE":"1958-03-17",
"SITE":"AFETR",
"DECAY_DATE":null,
"FILE":"3485745",
"GP_ID":"205613641",
"TLE_LINE0":"0 VANGUARD 1",
"TLE_LINE1":"1 00005U 58002B   22159.18141378  .00000119  00000-0  15950-3 0  9996",
"TLE_LINE2":"2 00005  34.2441 167.9981 1846644 355.7654   2.9055 10.84955669283539"},
{"CCSDS_OMM_VERS":"2.0",
"COMMENT":"GENERATED VIA SPACE-TRACK.ORG API",
"CREATION_DATE":"2022-06-09T19:12:48",
"ORIGINATOR":"18 SPCS",
"OBJECT_NAME":"VANGUARD 1",
"OBJECT_ID":"1958-002B",
"CENTER_NAME":"EARTH",
"REF_FRAME":"TEME",
"TIME_SYSTEM":"UTC",
"MEAN_ELEMENT_THEORY":"SGP4",
"EPOCH":"2022-06-09T09:05:18.391776",
"MEAN_MOTION":"10.84956086",
"ECCENTRICITY":"0.18465920",
"INCLINATION":"34.2436",
"RA_OF_ASC_NODE":"164.3074",
"ARG_OF_PERICENTER":"1.1574",
"MEAN_ANOMALY":"359.2574",
"EPHEMERIS_TYPE":"0",
"CLASSIFICATION_TYPE":"U",
"NORAD_CAT_ID":"5",
"ELEMENT_SET_NO":"999",
"REV_AT_EPOCH":"28366",
"BSTAR":"0.00019345000000",
"MEAN_MOTION_DOT":"0.00000145",
"MEAN_MOTION_DDOT":"0.0000000000000",
"SEMIMAJOR_AXIS":"8619.070",
"PERIOD":"132.724",
"APOAPSIS":"3832.525",
"PERIAPSIS":"649.344",
"OBJECT_TYPE":"PAYLOAD",
"RCS_SIZE":"MEDIUM",
"COUNTRY_CODE":"US",
"LAUNCH_DATE":"1958-03-17",
"SITE":"AFETR",
"DECAY_DATE":null,
"FILE":"3488214",
"GP_ID":"205714673",
"TLE_LINE0":"0 VANGUARD 1",
"TLE_LINE1":"1 00005U 58002B   22160.37868509  .00000145  00000-0  19345-3 0  9992",
"TLE_LINE2":"2 00005  34.2436 164.3074 1846592   1.1574 359.2574 10.84956086283664"}]